1 28915U 05050A   16118.07542616  .00000030  00000-0  00000+0 0  9995
2 28915  65.3011  79.8887 0017392 346.0999 178.6068  2.13115729 80467
1 29670U 06062A   16118.74431803 -.00000001  00000-0  10000-3 0  9991
2 29670  65.6537 318.8497 0022387 351.2676  25.9188  2.13104930 72689
1 29671U 06062B   16118.64454738 -.00000001  00000-0  10000-3 0  9993
2 29671  65.6716 318.9335 0016474 156.9255   5.0020  2.13103069 72680
1 29672U 06062C   16117.94740638 -.00000006 +00000-0 +10000-3 0  9998
2 29672 065.6562 318.8858 0015738 155.9851 007.5460 02.13102156072661
1 32275U 07052A   16118.15647763  .00000030  00000-0  10000-3 0  9996
2 32275  65.3165  79.6558 0004877 285.7176 192.4778  2.13104844 66185
1 32276U 07052B   16118.73356058  .00000034  00000-0  10000-3 0  9999
2 32276  65.3291  79.7011 0014140 332.2112 182.6188  2.13104285 66199
1 32393U 07065A   16118.56255918 -.00000002  00000-0  00000+0 0  9998
2 32393  65.2733 318.2024 0005576  88.6373 233.4917  2.13102790 64897
1 32395U 07065C   16118.16601929 -.00000005  00000-0  10000-3 0  9991
2 32395  65.2865 318.2575 0018273   0.2471 109.6832  2.13102863 64827
1 36111U 09070A   16118.21063847  .00000024  00000-0  00000+0 0  9991
2 36111  64.1821 197.8106 0004676 309.0594 272.3999  2.13102922 49557
1 36112U 09070B   16118.75608902  .00000022  00000-0  00000+0 0  9996
2 36112  64.1642 197.7204 0006730 171.7012 238.7089  2.13101637 49579
1 36113U 09070C   16118.73607688  .00000022  00000-0  10000-3 0  9990
2 36113  64.1697 197.7259 0001070 349.2686  93.2295  2.13102120 49572
1 36400U 10007A   16117.47321006 +.00000024 +00000-0 +10000-3 0  9990
2 36400 065.2243 078.8361 0030251 349.7220 190.0751 02.13102417047890
1 36401U 10007B   16118.06512523  .00000028  00000-0  10000-3 0  9997
2 36401  65.2173  78.7981 0005303  46.4208 138.0230  2.13102463 47904
1 36402U 10007C   16118.59164539  .00000031  00000-0  10000-3 0  9990
2 36402  65.2077  78.7578 0002669 308.0781 322.2619  2.13101910 47910
1 37137U 10041A   16118.48291097 -.00000004  00000-0  10000-3 0  9993
2 37137  64.8560 318.3315 0018595 152.1092 334.7523  2.13110910 43994
1 37138U 10041B   16118.61162479 -.00000003  00000-0  00000+0 0  9994
2 37138  64.8747 318.3989 0034205 167.1026 238.5306  2.13101825 43993
1 37139U 10041C   16118.81575211 -.00000002  00000-0  00000+0 0  9998
2 37139  64.8800 318.3877 0024392  15.9873   8.0706  2.13102607 44002
1 37372U 11009A   16118.11203331  .00000028  00000-0  00000+0 0  9993
2 37372  65.2049  78.7238 0008624 247.4052 147.4242  2.13102838 40184
1 37829U 11055A   16118.14534714  .00000024  00000-0  00000+0 0  9992
2 37829  64.5065 198.2044 0008659 251.7168 141.2932  2.13101975 35552
1 37867U 11064A   16117.60833111  .00000026  00000-0  00000+0 0  9999
2 37867  64.4863 198.3050 0017658 247.1553 139.6914  2.13102212 34895
1 37868U 11064B   16118.01911294  .00000025  00000-0  00000+0 0  9994
2 37868  64.4951 198.3306 0015273 248.1996 273.1195  2.13101863 34853
1 37869U 11064C   16118.75196935  .00000022  00000-0  00000+0 0  9990
2 37869  64.5023 198.2937 0020963 275.1214  44.5203  2.13102038 34876
1 37938U 11071A   16118.52707736  .00000031  00000-0  00000+0 0  9997
2 37938  65.2324  78.9299 0014569 246.2656 222.4666  2.13088464 34487
1 39155U 13019A   16118.07180188  .00000025  00000-0  00000+0 0  9993
2 39155  64.6556 198.2279 0017677 241.5260 186.0288  2.13102037 23370
1 39620U 14012A   16118.31821204  .00000036  00000-0  17829+2 0  9993
2 39620  65.0964  78.7623 0017769 329.2667 320.3960  2.13103705 16327
1 40001U 14032A   16117.81232319  .00000026  00000-0  00000+0 0  9997
2 40001  65.0363  78.8078 0006098 231.6070 253.7763  2.13102989 14531
1 40315U 14075A   16120.06061470  .00000003  00000-0  00000+0 0  9996
2 40315  64.6442 319.8160 0015799 235.7148 335.9339  2.13101523 10981
1 41330U 16008A   16120.72425556  .00000035  00000-0  00000+0 0  9999
2 41330  64.8376  78.9569 0009474 231.7119 146.5228  2.13103578  1761
